FENGYUN 1C DEB          
1 33748U 99025DJM 17345.30164822  .00000628  00000-0  31028-3 0  9999
2 33748  98.8694  19.2867 0043375  70.0784 290.5057 14.20501544497927
